H1 CPF  1  DLR 2021 01 12 10  5122 technosat            
H2  1704205 6203    42829 2021 01 12 00 00 00 2021 01 19 00 00 00    60 1 1  0 0 0
H9
10 0 59232  28800.000000  0      -1597633.693        426266.908      -6773255.981
10 0 59232  28860.000000  0      -1172389.371        576503.118      -6848389.390
10 0 59232  28920.000000  0       -740942.603        720574.641      -6894606.876
10 0 59232  28980.000000  0       -305158.476        857831.435      -6911712.566
10 0 59232  29040.000000  0        133074.143        987668.263      -6899632.112
10 0 59232  29100.000000  0        571850.607       1109527.276      -6858413.135
10 0 59232  29160.000000  0       1009258.749       1222900.421      -6788225.259
10 0 59232  29220.000000  0       1443387.231       1327331.613      -6689359.429
10 0 59232  29280.000000  0       1872333.750       1422418.567      -6562226.805
10 0 59232  29340.000000  0       2294213.346       1507814.378      -6407357.299
10 0 59232  29400.000000  0       2707166.759       1583228.805      -6225397.507
10 0 59232  29460.000000  0       3109368.567       1648429.221      -6017108.157
10 0 59232  29520.000000  0       3499035.233       1703241.296      -5783361.214
10 0 59232  29580.000000  0       3874433.114       1747549.390      -5525136.543
10 0 59232  29640.000000  0       4233886.319       1781296.645      -5243518.091
10 0 59232  29700.000000  0       4575784.439       1804484.803      -4939689.609
10 0 59232  29760.000000  0       4898590.000       1817173.678      -4614929.826
10 0 59232  29820.000000  0       5200845.602       1819480.329      -4270607.265
10 0 59232  29880.000000  0       5481180.793       1811577.926      -3908174.621
10 0 59232  29940.000000  0       5738318.541       1793694.332      -3529162.753
10 0 59232  30000.000000  0       5971081.394       1766110.365      -3135174.365
10 0 59232  30060.000000  0       6178397.261       1729157.813      -2727877.242
10 0 59232  30120.000000  0       6359304.698       1683217.183      -2308997.129
10 0 59232  30180.000000  0       6512957.686       1628715.158      -1880310.300
10 0 59232  30240.000000  0       6638629.837       1566121.801      -1443635.866
10 0 59232  30300.000000  0       6735718.077       1495947.515      -1000827.903
10 0 59232  30360.000000  0       6803745.793       1418739.775       -553767.324
10 0 59232  30420.000000  0       6842365.227       1335079.672       -104353.547
10 0 59232  30480.000000  0       6851359.206       1245578.310        345503.772
10 0 59232  30540.000000  0       6830642.391       1150873.078        793893.039
10 0 59232  30600.000000  0       6780261.937       1051623.736       1238909.113
10 0 59232  30660.000000  0       6700397.464        948508.390       1678661.750
10 0 59232  30720.000000  0       6591360.255        842219.384       2111283.978
10 0 59232  30780.000000  0       6453591.774        733459.131       2534940.213
10 0 59232  30840.000000  0       6287661.665        622935.957       2947834.165
10 0 59232  30900.000000  0       6094265.216        511359.941       3348216.654
10 0 59232  30960.000000  0       5874220.040        399438.714       3734393.232
10 0 59232  31020.000000  0       5628462.137        287873.378       4104731.266
10 0 59232  31080.000000  0       5358041.675        177354.583       4457666.747
10 0 59232  31140.000000  0       5064118.228         68558.587       4791710.948
10 0 59232  31200.000000  0       4747955.408        -37856.578       5105456.657
10 0 59232  31260.000000  0       4410915.026       -141254.808       5397583.955
10 0 59232  31320.000000  0       4054450.858       -241025.419       5666865.500
10 0 59232  31380.000000  0       3680102.131       -336586.399       5912171.423
10 0 59232  31440.000000  0       3289486.661       -427387.514       6132473.839
10 0 59232  31500.000000  0       2884293.666       -512913.246       6326850.866
10 0 59232  31560.000000  0       2466276.361       -592685.492       6494490.202
10 0 59232  31620.000000  0       2037244.310       -666266.013       6634692.302
10 0 59232  31680.000000  0       1599055.513       -733258.689       6746873.107
10 0 59232  31740.000000  0       1153608.279       -793311.535       6830566.239
10 0 59232  31800.000000  0        702833.001       -846118.408       6885424.664
10 0 59232  31860.000000  0        248683.900       -891420.471       6911221.964
10 0 59232  31920.000000  0       -206869.385       -929007.427       6907853.120
10 0 59232  31980.000000  0       -661850.189       -958718.462       6875334.840
10 0 59232  32040.000000  0      -1114283.283       -980442.921       6813805.461
10 0 59232  32100.000000  0      -1562203.320       -994120.693       6723524.336
10 0 59232  32160.000000  0      -2003663.201       -999742.312       6604870.797
10 0 59232  32220.000000  0      -2436742.400       -997348.810       6458342.680
10 0 59232  32280.000000  0      -2859555.203       -987031.267       6284554.473
10 0 59232  32340.000000  0      -3270258.940       -968930.100       6084234.998
10 0 59232  32400.000000  0      -3667062.055       -943234.115       5858224.559
10 0 59232  32460.000000  0      -4048231.967       -910179.297       5607471.666
10 0 59232  32520.000000  0      -4412102.787       -870047.334       5333029.317
10 0 59232  32580.000000  0      -4757082.741       -823163.861       5036050.740
10 0 59232  32640.000000  0      -5081661.285       -769896.459       4717784.785
10 0 59232  32700.000000  0      -5384415.951       -710652.442       4379570.848
10 0 59232  32760.000000  0      -5664018.787       -645876.384       4022833.370
10 0 59232  32820.000000  0      -5919242.381       -576047.428       3649076.010
10 0 59232  32880.000000  0      -6148965.515       -501676.422       3259875.468
10 0 59232  32940.000000  0      -6352178.416       -423302.830       2856874.975
10 0 59232  33000.000000  0      -6527987.566       -341491.465       2441777.392
10 0 59232  33060.000000  0      -6675619.945       -256829.059       2016337.956
10 0 59232  33120.000000  0      -6794426.698       -169920.730       1582356.787
10 0 59232  33180.000000  0      -6883886.240        -81386.330       1141671.147
10 0 59232  33240.000000  0      -6943606.756          8143.307        696147.509
10 0 59232  33300.000000  0      -6973328.083         98030.190        247673.476
10 0 59232  33360.000000  0      -6972922.969        187633.070       -201850.425
10 0 59232  33420.000000  0      -6942397.669        276311.351       -650519.031
10 0 59232  33480.000000  0      -6881891.876        363428.991      -1096430.844
10 0 59232  33540.000000  0      -6791677.991        448358.373      -1537696.257
10 0 59232  33600.000000  0      -6672159.848        530484.121      -1972445.672
10 0 59232  33660.000000  0      -6523870.904        609206.875      -2398837.611
10 0 59232  33720.000000  0      -6347471.734        683946.963      -2815066.813
10 0 59232  33780.000000  0      -6143746.763        754147.976      -3219372.103
10 0 59232  33840.000000  0      -5913600.432        819280.183      -3610043.877
10 0 59232  33900.000000  0      -5658052.907        878843.791      -3985431.340
10 0 59232  33960.000000  0      -5378235.276        932372.031      -4343949.497
10 0 59232  34020.000000  0      -5075384.215        979434.051      -4684085.801
10 0 59232  34080.000000  0      -4750836.202       1019637.573      -5004406.434
10 0 59232  34140.000000  0      -4406021.339       1052631.357      -5303562.184
10 0 59232  34200.000000  0      -4042456.817       1078107.426      -5580293.949
10 0 59232  34260.000000  0      -3661740.030       1095803.023      -5833437.858
10 0 59232  34320.000000  0      -3265541.329       1105502.301      -6061929.943
10 0 59232  34380.000000  0      -2855596.584       1107037.740      -6264810.314
10 0 59232  34440.000000  0      -2433699.544       1100291.373      -6441227.009
10 0 59232  34500.000000  0      -2001693.861       1085195.741      -6590439.396
10 0 59232  34560.000000  0      -1561464.974       1061734.548      -6711820.981
10 0 59232  34620.000000  0      -1114931.959       1029943.011      -6804861.811
10 0 59232  34680.000000  0       -664039.232        989907.958      -6869170.440
10 0 59232  34740.000000  0       -210748.219        941767.667      -6904475.416
10 0 59232  34800.000000  0        242970.964        885711.426      -6910626.405
10 0 59232  34860.000000  0        695147.948        821978.800      -6887594.967
10 0 59232  34920.000000  0       1143820.695        750858.625      -6835474.782
10 0 59232  34980.000000  0       1587043.972        672687.736      -6754481.248
10 0 59232  35040.000000  0       2022897.654        587849.415      -6644950.673
10 0 59232  35100.000000  0       2449494.987        496771.596      -6507339.079
10 0 59232  35160.000000  0       2864990.812        399924.855      -6342220.487
10 0 59232  35220.000000  0       3267589.551        297820.092      -6150284.652
10 0 59232  35280.000000  0       3655552.957        191005.946      -5932334.441
10 0 59232  35340.000000  0       4027207.709         80066.005      -5689282.723
10 0 59232  35400.000000  0       4380952.719        -34384.146      -5422148.855
10 0 59232  35460.000000  0       4715266.305       -151700.134      -5132054.748
10 0 59232  35520.000000  0       5028713.045       -271212.213      -4820220.342
10 0 59232  35580.000000  0       5319950.182       -392228.850      -4487958.649
10 0 59232  35640.000000  0       5587733.676       -514040.464      -4136670.413
10 0 59232  35700.000000  0       5830923.844       -635923.305      -3767838.347
10 0 59232  35760.000000  0       6048490.550       -757143.482      -3383020.985
10 0 59232  35820.000000  0       6239517.926       -876961.098      -2983846.158
10 0 59232  35880.000000  0       6403208.595       -994634.451      -2572004.114
10 0 59232  35940.000000  0       6538887.348      -1109424.282      -2149240.272
99
